OBJECT_NAME,OBJECT_ID,EPOCH,MEAN_MOTION,ECCENTRICITY,INCLINATION,RA_OF_ASC_NODE,ARG_OF_PERICENTER,MEAN_ANOMALY,EPHEMERIS_TYPE,CLASSIFICATION_TYPE,NORAD_CAT_ID,ELEMENT_SET_NO,REV_AT_EPOCH,BSTAR,MEAN_MOTION_DOT,MEAN_MOTION_DDOT
FENGYUN 3D,2017-072A,2026-06-17T22:08:31.164288,14.19738837,.00025377,99.0126,143.3584,61.5377,298.6054,0,U,43010,999,44509,-.10503042E-4,-.68E-6,0
NOAA 20 (JPSS-1),2017-073A,2026-06-17T22:01:25.577760,14.19511863,.00002986,98.7770,108.3738,103.3678,256.7532,0,U,43013,999,44457,.43237286E-4,.47E-6,0
GOES 17,2018-022A,2026-06-17T21:05:55.178304,1.00269624,.00004475,0.9397,85.6977,29.4715,17.9206,0,U,43226,999,3043,0,-.188E-5,0
SENTINEL-3B,2018-039A,2026-06-17T19:42:03.842784,14.26734886,.00007227,98.6248,236.3440,90.0659,270.0604,0,U,43437,999,42421,.52992362E-4,.85E-6,0
FENGYUN 2H,2018-050A,2026-06-17T21:54:05.908032,1.00269489,.00019566,3.0333,79.0595,138.7162,96.3078,0,U,43491,999,2944,0,-.137E-5,0
METOP-C,2018-087A,2026-06-17T21:54:16.924032,14.21512322,.0001789,98.6645,228.5031,128.5426,231.5912,0,U,43689,999,39493,.59578701E-4,.87E-6,0
GEO-KOMPSAT-2A,2018-100A,2026-06-17T22:07:57.080352,1.00269516,.00018136,0.0512,159.7610,287.7204,278.9346,0,U,43823,999,2763,0,-.349E-5,0
METEOR-M2 2,2019-038A,2026-06-17T22:43:52.380192,14.24366072,.00020306,98.9141,156.2438,46.5969,313.5378,0,U,44387,999,36140,.30794292E-4,.25E-6,0
ARKTIKA-M 1,2021-016A,2026-06-17T11:46:36.471360,2.00622504,.72885287,63.2922,57.5948,269.9420,14.6012,0,U,47719,999,3879,0,-.21E-5,0
FENGYUN 3E,2021-062A,2026-06-17T23:26:38.326272,14.19904692,.00028197,98.7487,172.3758,85.1425,275.0073,0,U,49008,999,25669,.33164298E-4,.26E-6,0
GOES 18,2022-021A,2026-06-17T19:09:18.798336,1.00270613,.00003205,0.0198,176.3163,336.8448,263.2028,0,U,51850,999,659,0,.91E-6,0
NOAA 21 (JPSS-2),2022-150A,2026-06-17T21:07:16.163616,14.19565562,.0001709,98.7059,107.6577,152.4051,207.7216,0,U,54234,999,18664,.38441886E-4,.38E-6,0
METEOSAT-12 (MTG-I1),2022-170C,2026-06-17T21:31:15.079584,1.00272808,.00031999,0.7394,23.1416,71.1996,134.2072,0,U,54743,999,1298,0,-.14E-6,0
TIANMU-1 03,2023-039A,2026-06-17T22:56:01.644576,15.47303803,.00041708,97.5234,342.9542,96.8777,263.2947,0,U,55973,999,18095,.26183538E-3,.13271E-3,0
TIANMU-1 04,2023-039B,2026-06-17T22:40:26.796576,15.47901944,.00048385,97.5170,342.0968,93.9224,266.2579,0,U,55974,999,18096,.25661446E-3,.13279E-3,0
TIANMU-1 05,2023-039C,2026-06-17T22:28:22.740384,15.47230025,.00039943,97.5217,342.5488,113.3901,246.7769,0,U,55975,999,18093,.24477533E-3,.12367E-3,0
TIANMU-1 06,2023-039D,2026-06-17T22:45:22.757184,15.47805855,.00043722,97.5222,343.1978,108.9754,251.1970,0,U,55976,999,18096,.25510475E-3,.13155E-3,0
FENGYUN 3G,2023-055A,2026-06-17T22:38:05.998272,15.52659550,.0007017,49.9936,342.1251,299.5283,60.4984,0,U,56232,999,18012,.33621998E-3,.20737E-3,0
METEOR-M2 3,2023-091A,2026-06-17T22:35:55.891968,14.24046746,.00043468,98.6099,223.9043,153.7654,206.3746,0,U,57166,999,15462,-.30099346E-4,-.112E-5,0
TIANMU-1 07,2023-101A,2026-06-17T22:48:40.049856,15.29815429,.00041284,97.2587,219.6014,119.7736,240.3916,0,U,57399,999,16176,.18201046E-3,.5182E-4,0
TIANMU-1 08,2023-101B,2026-06-17T22:00:37.728576,15.29819770,.00056012,97.2576,219.3393,113.2174,246.9657,0,U,57400,999,16175,.17845896E-3,.5081E-4,0
TIANMU-1 09,2023-101C,2026-06-17T21:36:43.490304,15.29850967,.00046166,97.2534,218.7384,124.9649,235.2026,0,U,57401,999,16175,.18427194E-3,.5254E-4,0
TIANMU-1 10,2023-101D,2026-06-17T22:24:20.239776,15.29822903,.0006189,97.2613,219.8219,124.2528,235.9300,0,U,57402,999,16175,.18680579E-3,.5323E-4,0
FENGYUN 3F,2023-111A,2026-06-17T23:03:27.292320,14.19939198,.00015937,98.6836,238.9550,92.8881,267.2478,0,U,57490,999,14897,.34895098E-4,.31E-6,0
ARKTIKA-M 2,2023-198A,2026-06-09T18:48:45.592992,2.00606537,.69004015,63.2205,155.1874,267.4353,18.7899,0,U,58584,999,1817,0,.212E-5,0
TIANMU-1 11,2023-205A,2026-06-17T21:43:46.115904,15.27002177,.00088728,97.3442,190.4510,14.7108,345.4387,0,U,58645,999,13763,.16940456E-3,.442E-4,0
TIANMU-1 12,2023-205B,2026-06-17T22:35:29.042304,15.26967407,.000664,97.3431,190.2419,1.1200,359.0053,0,U,58646,999,13762,.18228178E-3,.4755E-4,0
TIANMU-1 13,2023-205C,2026-06-17T21:47:33.263232,15.26820332,.00058273,97.3458,190.4819,338.6276,21.4718,0,U,58647,999,13761,.17411443E-3,.4517E-4,0
TIANMU-1 14,2023-205D,2026-06-17T21:26:13.281792,15.26864946,.00067868,97.3394,189.6485,342.8857,17.2152,0,U,58648,999,13761,.17482138E-3,.4543E-4,0
TIANMU-1 19,2023-208A,2026-06-17T22:34:02.762400,15.31583654,.00037613,97.4511,285.2437,325.0289,35.0705,0,U,58660,999,13744,.22182456E-3,.6687E-4,0
