FENGYUN 3D              
1 43010U 17072A   26168.92258292 -.00000068  00000+0 -10503-4 0  9995
2 43010  99.0126 143.3584 0002537  61.5377 298.6054 14.19738837445098
NOAA 20 (JPSS-1)        
1 43013U 17073A   26168.91765715  .00000047  00000+0  43237-4 0  9996
2 43013  98.7770 108.3738 0000298 103.3678 256.7532 14.19511863444571
GOES 17                 
1 43226U 18022A   26168.87911086 -.00000188  00000+0  00000+0 0  9999
2 43226   0.9397  85.6977 0000447  29.4715  17.9206  1.00269624 30437
SENTINEL-3B             
1 43437U 18039A   26168.82087781  .00000085  00000+0  52992-4 0  9999
2 43437  98.6248 236.3440 0000722  90.0659 270.0604 14.26734886424213
FENGYUN 2H              
1 43491U 18050A   26168.91256838 -.00000137  00000+0  00000+0 0  9990
2 43491   3.0333  79.0595 0001956 138.7162  96.3078  1.00269489 29440
METOP-C                 
1 43689U 18087A   26168.91269588  .00000087  00000+0  59579-4 0  9998
2 43689  98.6645 228.5031 0001789 128.5426 231.5912 14.21512322394938
GEO-KOMPSAT-2A          
1 43823U 18100A   26168.92218843 -.00000349  00000+0  00000+0 0  9995
2 43823   0.0512 159.7610 0001813 287.7204 278.9346  1.00269516 27639
METEOR-M2 2             
1 44387U 19038A   26168.94713403  .00000025  00000+0  30794-4 0  9994
2 44387  98.9141 156.2438 0002030  46.5969 313.5378 14.24366072361402
ARKTIKA-M 1             
1 47719U 21016A   26168.49069990 -.00000210  00000+0  00000+0 0  9999
2 47719  63.2922  57.5948 7288528 269.9420  14.6012  2.00622504 38796
FENGYUN 3E              
1 49008U 21062A   26168.97683248  .00000026  00000+0  33164-4 0  9990
2 49008  98.7487 172.3758 0002819  85.1425 275.0073 14.19904692256691
GOES 18                 
1 51850U 22021A   26168.79813424  .00000091  00000+0  00000+0 0  9995
2 51850   0.0198 176.3163 0000320 336.8448 263.2028  1.00270613  6590
NOAA 21 (JPSS-2)        
1 54234U 22150A   26168.88004819  .00000038  00000+0  38442-4 0  9994
2 54234  98.7059 107.6577 0001709 152.4051 207.7216 14.19565562186640
METEOSAT-12 (MTG-I1)    
1 54743U 22170C   26168.89670231 -.00000014  00000+0  00000+0 0  9998
2 54743   0.7394  23.1416 0003199  71.1996 134.2072  1.00272808 12987
TIANMU-1 03             
1 55973U 23039A   26168.95557459  .00013271  00000+0  26184-3 0  9995
2 55973  97.5234 342.9542 0004170  96.8777 263.2947 15.47303803180956
TIANMU-1 04             
1 55974U 23039B   26168.94475459  .00013279  00000+0  25661-3 0  9991
2 55974  97.5170 342.0968 0004838  93.9224 266.2579 15.47901944180960
TIANMU-1 05             
1 55975U 23039C   26168.93637431  .00012367  00000+0  24478-3 0  9993
2 55975  97.5217 342.5488 0003994 113.3901 246.7769 15.47230025180932
TIANMU-1 06             
1 55976U 23039D   26168.94818006  .00013155  00000+0  25510-3 0  9998
2 55976  97.5222 343.1978 0004372 108.9754 251.1970 15.47805855180963
FENGYUN 3G              
1 56232U 23055A   26168.94312498  .00020737  00000+0  33622-3 0  9993
2 56232  49.9936 342.1251 0007017 299.5283  60.4984 15.52659550180127
METEOR-M2 3             
1 57166U 23091A   26168.94161912 -.00000112  00000+0 -30099-4 0  9996
2 57166  98.6099 223.9043 0004346 153.7654 206.3746 14.24046746154623
TIANMU-1 07             
1 57399U 23101A   26168.95046354  .00005182  00000+0  18201-3 0  9999
2 57399  97.2587 219.6014 0004128 119.7736 240.3916 15.29815429161767
TIANMU-1 08             
1 57400U 23101B   26168.91710334  .00005081  00000+0  17846-3 0  9996
2 57400  97.2576 219.3393 0005601 113.2174 246.9657 15.29819770161753
TIANMU-1 09             
1 57401U 23101C   26168.90050336  .00005254  00000+0  18427-3 0  9993
2 57401  97.2534 218.7384 0004616 124.9649 235.2026 15.29850967161756
TIANMU-1 10             
1 57402U 23101D   26168.93356759  .00005323  00000+0  18681-3 0  9994
2 57402  97.2613 219.8219 0006189 124.2528 235.9300 15.29822903161751
FENGYUN 3F              
1 57490U 23111A   26168.96073255  .00000031  00000+0  34895-4 0  9999
2 57490  98.6836 238.9550 0001593  92.8881 267.2478 14.19939198148972
ARKTIKA-M 2             
1 58584U 23198A   26160.78386103  .00000212  00000+0  00000+0 0  9997
2 58584  63.2205 155.1874 6900401 267.4353  18.7899  2.00606537 18179
TIANMU-1 11             
1 58645U 23205A   26168.90539486  .00004420  00000+0  16940-3 0  9999
2 58645  97.3442 190.4510 0008872  14.7108 345.4387 15.27002177137631
TIANMU-1 12             
1 58646U 23205B   26168.94130836  .00004755  00000+0  18228-3 0  9992
2 58646  97.3431 190.2419 0006640   1.1200 359.0053 15.26967407137625
TIANMU-1 13             
1 58647U 23205C   26168.90802388  .00004517  00000+0  17411-3 0  9996
2 58647  97.3458 190.4819 0005827 338.6276  21.4718 15.26820332137610
TIANMU-1 14             
1 58648U 23205D   26168.89320928  .00004543  00000+0  17482-3 0  9997
2 58648  97.3394 189.6485 0006786 342.8857  17.2152 15.26864946137610
TIANMU-1 19             
1 58660U 23208A   26168.94030975  .00006687  00000+0  22182-3 0  9994
2 58660  97.4511 285.2437 0003761 325.0289  35.0705 15.31583654137441
